[{"OBJECT_NAME":"ONEWEB-0151","OBJECT_ID":"2021-025AA","EPOCH":"2026-03-09T19:30:47.900160","MEAN_MOTION":13.13469771,"ECCENTRICITY":0.00018127,"INCLINATION":87.9037,"RA_OF_ASC_NODE":339.9892,"ARG_OF_PERICENTER":81.8028,"MEAN_ANOMALY":278.3307,"EPHEMERIS_TYPE":0,"CLASSIFICATION_TYPE":"U","NORAD_CAT_ID":48066,"ELEMENT_SET_NO":999,"REV_AT_EPOCH":24054,"BSTAR":0.00094826988,"MEAN_MOTION_DOT":3.59e-6,"MEAN_MOTION_DDOT":0},{"OBJECT_NAME":"DELTA 1 DEB","OBJECT_ID":"1975-052G","EPOCH":"2026-03-08T13:56:40.934976","MEAN_MOTION":13.0252387,"ECCENTRICITY":0.02440485,"INCLINATION":99.5696,"RA_OF_ASC_NODE":107.9836,"ARG_OF_PERICENTER":184.4605,"MEAN_ANOMALY":330.6132,"EPHEMERIS_TYPE":0,"CLASSIFICATION_TYPE":"U","NORAD_CAT_ID":21271,"ELEMENT_SET_NO":999,"REV_AT_EPOCH":65471,"BSTAR":0.0012764125,"MEAN_MOTION_DOT":4.21e-6,"MEAN_MOTION_DDOT":0}]
